STARLINK-35502          
1 66435U 25259P   25332.16671295 -.01998314  00000+0 -20024-1 0  9994
2 66435  42.9996 132.8124 0001581 278.2194 156.4430 15.67836324  3937
STARLINK-35501          
1 66436U 25259Q   25332.16671295 -.02000600  00000+0 -20048-1 0  9994
2 66436  42.9995 132.8020 0001638 279.6087 158.8862 15.67838016  3936
STARLINK-35474          
1 66437U 25259R   25332.16671295 -.02013934  00000+0 -20194-1 0  9991
2 66437  42.9997 132.7971 0001600 280.1859 160.2261 15.67846254  3939
STARLINK-34681          
1 66438U 25259S   25332.16671295 -.02000840  00000+0 -20051-1 0  9996
2 66438  42.9998 132.7918 0001552 279.0959 163.2337 15.67838636  3826
STARLINK-35327          
1 66439U 25259T   25332.16671295 -.01996565  00000+0 -20006-1 0  9994
2 66439  42.9997 132.8085 0001552 279.7644 156.8165 15.67834667  3939
STARLINK-35405          
1 66440U 25259U   25332.16671295 -.01972960  00000+0 -19758-1 0  9991
2 66440  42.9999 132.7885 0001516 266.5221 177.7480 15.67809019  3930
STARLINK-35426          
1 66441U 25259V   25332.16671295 -.01993105  00000+0 -19969-1 0  9990
2 66441  42.9998 132.7828 0001580 280.3691 165.7992 15.67830841  3935
STARLINK-34724          
1 66442U 25259W   25332.16671295 -.01999976  00000+0 -20042-1 0  9997
2 66442  43.0000 132.7786 0001539 275.5324 172.5494 15.67837226  3935
STARLINK-35219          
1 66443U 25259X   25332.16671295 -.02013094  00000+0 -20187-1 0  9997
2 66443  42.9999 132.7734 0001523 280.3641 169.6368 15.67843609  3820
STARLINK-35360          
1 66444U 25259Y   25332.16671295 -.02015100  00000+0 -20208-1 0  9992
2 66444  42.9998 132.7583 0001530 277.7993 177.9524 15.67845164  3936
STARLINK-34698          
1 66445U 25259Z   25332.16671295 -.02000512  00000+0 -20048-1 0  9996
2 66445  42.9997 132.7677 0001531 280.8749 171.0398 15.67838383  3822
STARLINK-34986          
1 66446U 25259AA  25332.16671295 -.02001653  00000+0 -20060-1 0  9998
2 66446  42.9997 132.7631 0001532 278.9141 174.9169 15.67839043  3932
