CCSDS_OMM_VERS = 2.0
CREATION_DATE  = 
ORIGINATOR     = 

OBJECT_NAME    = STARLINK-35502
OBJECT_ID      = 2025-259P
CENTER_NAME    = EARTH
REF_FRAME      = TEME
TIME_SYSTEM    = UTC
MEAN_ELEMENT_THEORY = SGP/SGP4

EPOCH          = 2025-11-28T04:00:03.998880
MEAN_MOTION    = 15.67836324
ECCENTRICITY   = .0001581
INCLINATION    = 42.9996
RA_OF_ASC_NODE = 132.8124
ARG_OF_PERICENTER = 278.2194
MEAN_ANOMALY   = 156.4430

EPHEMERIS_TYPE = 0
CLASSIFICATION_TYPE = U
NORAD_CAT_ID   = 66435
ELEMENT_SET_NO = 999
REV_AT_EPOCH   = 393
BSTAR          = -.20024E-1
MEAN_MOTION_DOT = -.1998314E-1
MEAN_MOTION_DDOT = 0

CCSDS_OMM_VERS = 2.0
CREATION_DATE  = 
ORIGINATOR     = 

OBJECT_NAME    = STARLINK-35501
OBJECT_ID      = 2025-259Q
CENTER_NAME    = EARTH
REF_FRAME      = TEME
TIME_SYSTEM    = UTC
MEAN_ELEMENT_THEORY = SGP/SGP4

EPOCH          = 2025-11-28T04:00:03.998880
MEAN_MOTION    = 15.67838016
ECCENTRICITY   = .0001638
INCLINATION    = 42.9995
RA_OF_ASC_NODE = 132.8020
ARG_OF_PERICENTER = 279.6087
MEAN_ANOMALY   = 158.8862

EPHEMERIS_TYPE = 0
CLASSIFICATION_TYPE = U
NORAD_CAT_ID   = 66436
ELEMENT_SET_NO = 999
REV_AT_EPOCH   = 393
BSTAR          = -.20048E-1
MEAN_MOTION_DOT = -.20006E-1
MEAN_MOTION_DDOT = 0

CCSDS_OMM_VERS = 2.0
CREATION_DATE  = 
ORIGINATOR     = 

OBJECT_NAME    = STARLINK-35474
OBJECT_ID      = 2025-259R
CENTER_NAME    = EARTH
REF_FRAME      = TEME
TIME_SYSTEM    = UTC
MEAN_ELEMENT_THEORY = SGP/SGP4

EPOCH          = 2025-11-28T04:00:03.998880
MEAN_MOTION    = 15.67846254
ECCENTRICITY   = .00016
INCLINATION    = 42.9997
RA_OF_ASC_NODE = 132.7971
ARG_OF_PERICENTER = 280.1859
MEAN_ANOMALY   = 160.2261

EPHEMERIS_TYPE = 0
CLASSIFICATION_TYPE = U
NORAD_CAT_ID   = 66437
ELEMENT_SET_NO = 999
REV_AT_EPOCH   = 393
BSTAR          = -.20194E-1
MEAN_MOTION_DOT = -.2013934E-1
MEAN_MOTION_DDOT = 0

CCSDS_OMM_VERS = 2.0
CREATION_DATE  = 
ORIGINATOR     = 

OBJECT_NAME    = STARLINK-34681
OBJECT_ID      = 2025-259S
CENTER_NAME    = EARTH
REF_FRAME      = TEME
TIME_SYSTEM    = UTC
MEAN_ELEMENT_THEORY = SGP/SGP4

EPOCH          = 2025-11-28T04:00:03.998880
MEAN_MOTION    = 15.67838636
ECCENTRICITY   = .0001552
INCLINATION    = 42.9998
RA_OF_ASC_NODE = 132.7918
ARG_OF_PERICENTER = 279.0959
MEAN_ANOMALY   = 163.2337

EPHEMERIS_TYPE = 0
CLASSIFICATION_TYPE = U
NORAD_CAT_ID   = 66438
ELEMENT_SET_NO = 999
REV_AT_EPOCH   = 382
BSTAR          = -.20051E-1
MEAN_MOTION_DOT = -.200084E-1
MEAN_MOTION_DDOT = 0

CCSDS_OMM_VERS = 2.0
CREATION_DATE  = 
ORIGINATOR     = 

OBJECT_NAME    = STARLINK-35327
OBJECT_ID      = 2025-259T
CENTER_NAME    = EARTH
REF_FRAME      = TEME
TIME_SYSTEM    = UTC
MEAN_ELEMENT_THEORY = SGP/SGP4

EPOCH          = 2025-11-28T04:00:03.998880
MEAN_MOTION    = 15.67834667
ECCENTRICITY   = .0001552
INCLINATION    = 42.9997
RA_OF_ASC_NODE = 132.8085
ARG_OF_PERICENTER = 279.7644
MEAN_ANOMALY   = 156.8165

EPHEMERIS_TYPE = 0
CLASSIFICATION_TYPE = U
NORAD_CAT_ID   = 66439
ELEMENT_SET_NO = 999
REV_AT_EPOCH   = 393
BSTAR          = -.20006E-1
MEAN_MOTION_DOT = -.1996565E-1
MEAN_MOTION_DDOT = 0

CCSDS_OMM_VERS = 2.0
CREATION_DATE  = 
ORIGINATOR     = 

OBJECT_NAME    = STARLINK-35405
OBJECT_ID      = 2025-259U
CENTER_NAME    = EARTH
REF_FRAME      = TEME
TIME_SYSTEM    = UTC
MEAN_ELEMENT_THEORY = SGP/SGP4

EPOCH          = 2025-11-28T04:00:03.998880
MEAN_MOTION    = 15.67809019
ECCENTRICITY   = .0001516
INCLINATION    = 42.9999
RA_OF_ASC_NODE = 132.7885
ARG_OF_PERICENTER = 266.5221
MEAN_ANOMALY   = 177.7480

EPHEMERIS_TYPE = 0
CLASSIFICATION_TYPE = U
NORAD_CAT_ID   = 66440
ELEMENT_SET_NO = 999
REV_AT_EPOCH   = 393
BSTAR          = -.19758E-1
MEAN_MOTION_DOT = -.197296E-1
MEAN_MOTION_DDOT = 0

CCSDS_OMM_VERS = 2.0
CREATION_DATE  = 
ORIGINATOR     = 

OBJECT_NAME    = STARLINK-35426
OBJECT_ID      = 2025-259V
CENTER_NAME    = EARTH
REF_FRAME      = TEME
TIME_SYSTEM    = UTC
MEAN_ELEMENT_THEORY = SGP/SGP4

EPOCH          = 2025-11-28T04:00:03.998880
MEAN_MOTION    = 15.67830841
ECCENTRICITY   = .000158
INCLINATION    = 42.9998
RA_OF_ASC_NODE = 132.7828
ARG_OF_PERICENTER = 280.3691
MEAN_ANOMALY   = 165.7992

EPHEMERIS_TYPE = 0
CLASSIFICATION_TYPE = U
NORAD_CAT_ID   = 66441
ELEMENT_SET_NO = 999
REV_AT_EPOCH   = 393
BSTAR          = -.19969E-1
MEAN_MOTION_DOT = -.1993105E-1
MEAN_MOTION_DDOT = 0

CCSDS_OMM_VERS = 2.0
CREATION_DATE  = 
ORIGINATOR     = 

OBJECT_NAME    = STARLINK-34724
OBJECT_ID      = 2025-259W
CENTER_NAME    = EARTH
REF_FRAME      = TEME
TIME_SYSTEM    = UTC
MEAN_ELEMENT_THEORY = SGP/SGP4

EPOCH          = 2025-11-28T04:00:03.998880
MEAN_MOTION    = 15.67837226
ECCENTRICITY   = .0001539
INCLINATION    = 43.0000
RA_OF_ASC_NODE = 132.7786
ARG_OF_PERICENTER = 275.5324
MEAN_ANOMALY   = 172.5494

EPHEMERIS_TYPE = 0
CLASSIFICATION_TYPE = U
NORAD_CAT_ID   = 66442
ELEMENT_SET_NO = 999
REV_AT_EPOCH   = 393
BSTAR          = -.20042E-1
MEAN_MOTION_DOT = -.1999976E-1
MEAN_MOTION_DDOT = 0

CCSDS_OMM_VERS = 2.0
CREATION_DATE  = 
ORIGINATOR     = 

OBJECT_NAME    = STARLINK-35219
OBJECT_ID      = 2025-259X
CENTER_NAME    = EARTH
REF_FRAME      = TEME
TIME_SYSTEM    = UTC
MEAN_ELEMENT_THEORY = SGP/SGP4

EPOCH          = 2025-11-28T04:00:03.998880
MEAN_MOTION    = 15.67843609
ECCENTRICITY   = .0001523
INCLINATION    = 42.9999
RA_OF_ASC_NODE = 132.7734
ARG_OF_PERICENTER = 280.3641
MEAN_ANOMALY   = 169.6368

EPHEMERIS_TYPE = 0
CLASSIFICATION_TYPE = U
NORAD_CAT_ID   = 66443
ELEMENT_SET_NO = 999
REV_AT_EPOCH   = 382
BSTAR          = -.20187E-1
MEAN_MOTION_DOT = -.2013094E-1
MEAN_MOTION_DDOT = 0

CCSDS_OMM_VERS = 2.0
CREATION_DATE  = 
ORIGINATOR     = 

OBJECT_NAME    = STARLINK-35360
OBJECT_ID      = 2025-259Y
CENTER_NAME    = EARTH
REF_FRAME      = TEME
TIME_SYSTEM    = UTC
MEAN_ELEMENT_THEORY = SGP/SGP4

EPOCH          = 2025-11-28T04:00:03.998880
MEAN_MOTION    = 15.67845164
ECCENTRICITY   = .000153
INCLINATION    = 42.9998
RA_OF_ASC_NODE = 132.7583
ARG_OF_PERICENTER = 277.7993
MEAN_ANOMALY   = 177.9524

EPHEMERIS_TYPE = 0
CLASSIFICATION_TYPE = U
NORAD_CAT_ID   = 66444
ELEMENT_SET_NO = 999
REV_AT_EPOCH   = 393
BSTAR          = -.20208E-1
MEAN_MOTION_DOT = -.20151E-1
MEAN_MOTION_DDOT = 0

CCSDS_OMM_VERS = 2.0
CREATION_DATE  = 
ORIGINATOR     = 

OBJECT_NAME    = STARLINK-34698
OBJECT_ID      = 2025-259Z
CENTER_NAME    = EARTH
REF_FRAME      = TEME
TIME_SYSTEM    = UTC
MEAN_ELEMENT_THEORY = SGP/SGP4

EPOCH          = 2025-11-28T04:00:03.998880
MEAN_MOTION    = 15.67838383
ECCENTRICITY   = .0001531
INCLINATION    = 42.9997
RA_OF_ASC_NODE = 132.7677
ARG_OF_PERICENTER = 280.8749
MEAN_ANOMALY   = 171.0398

EPHEMERIS_TYPE = 0
CLASSIFICATION_TYPE = U
NORAD_CAT_ID   = 66445
ELEMENT_SET_NO = 999
REV_AT_EPOCH   = 382
BSTAR          = -.20048E-1
MEAN_MOTION_DOT = -.2000512E-1
MEAN_MOTION_DDOT = 0

CCSDS_OMM_VERS = 2.0
CREATION_DATE  = 
ORIGINATOR     = 

OBJECT_NAME    = STARLINK-34986
OBJECT_ID      = 2025-259AA
CENTER_NAME    = EARTH
REF_FRAME      = TEME
TIME_SYSTEM    = UTC
MEAN_ELEMENT_THEORY = SGP/SGP4

EPOCH          = 2025-11-28T04:00:03.998880
MEAN_MOTION    = 15.67839043
ECCENTRICITY   = .0001532
INCLINATION    = 42.9997
RA_OF_ASC_NODE = 132.7631
ARG_OF_PERICENTER = 278.9141
MEAN_ANOMALY   = 174.9169

EPHEMERIS_TYPE = 0
CLASSIFICATION_TYPE = U
NORAD_CAT_ID   = 66446
ELEMENT_SET_NO = 999
REV_AT_EPOCH   = 393
BSTAR          = -.2006E-1
MEAN_MOTION_DOT = -.2001653E-1
MEAN_MOTION_DDOT = 0

